{
    "links": {
        "self": "http://www.neowsapp.com/rest/v1/neo/3608619?api_key=iIulBulltgU6a56xZRHN4H3l9WmuAYTsLGpBGhQ2"
    },
    "id": "3608619",
    "neo_reference_id": "3608619",
    "name": "(2012 RH15)",
    "designation": "2012 RH15",
    "nasa_jpl_url": "http://ssd.jpl.nasa.gov/sbdb.cgi?sstr=3608619",
    "absolute_magnitude_h": 24.8,
    "estimated_diameter": {
        "kilometers": {
            "estimated_diameter_min": 0.0291443905,
            "estimated_diameter_max": 0.0651688382
        },
        "meters": {
            "estimated_diameter_min": 29.1443904535,
            "estimated_diameter_max": 65.1688382168
        },
        "miles": {
            "estimated_diameter_min": 0.018109479,
            "estimated_diameter_max": 0.0404940262
        },
        "feet": {
            "estimated_diameter_min": 95.6180819754,
            "estimated_diameter_max": 213.8085311752
        }
    },
    "is_potentially_hazardous_asteroid": false,
    "close_approach_data": [
        {
            "close_approach_date": "2012-09-21",
            "close_approach_date_full": "2012-Sep-21 17:17",
            "epoch_date_close_approach": 1348247820000,
            "relative_velocity": {
                "kilometers_per_second": "7.1741153784",
                "kilometers_per_hour": "25826.8153622136",
                "miles_per_hour": "16047.7786899266"
            },
            "miss_distance": {
                "astronomical": "0.0543111057",
                "lunar": "21.1270201173",
                "kilometers": "8124825.730064859",
                "miles": "5048532.6050946942"
            },
            "orbiting_body": "Earth"
        }
    ],
    "orbital_data": {
        "orbit_id": "11",
        "orbit_determination_date": "2017-04-06 08:49:02",
        "first_observation_date": "2012-09-14",
        "last_observation_date": "2012-09-24",
        "data_arc_in_days": 10,
        "observations_used": 63,
        "orbit_uncertainty": "8",
        "minimum_orbit_intersection": ".0540228",
        "jupiter_tisserand_invariant": "3.241",
        "epoch_osculation": "2456187.5",
        "eccentricity": ".571649986311256",
        "semi_major_axis": "2.45895245611299",
        "inclination": "3.97450137428803",
        "ascending_node_longitude": "195.4227088558147",
        "orbital_period": "1408.392243069657",
        "perihelion_distance": "1.05329231823597",
        "perihelion_argument": "159.8618184578786",
        "aphelion_distance": "3.86461259399001",
        "perihelion_time": "2456189.208910011952",
        "mean_anomaly": "359.5631844698592",
        "mean_motion": ".2556106097370738",
        "equinox": "J2000",
        "orbit_class": {
            "orbit_class_type": "AMO",
            "orbit_class_description": "Near-Earth asteroid orbits similar to that of 1221 Amor",
            "orbit_class_range": "1.017 AU < q (perihelion) < 1.3 AU"
        }
    },
    "is_sentry_object": false
}